EUTELSAT 8 WEST B       
1 40875U 15039B   25328.86788542 -.00000046  00000+0  00000+0 0  9999
2 40875   0.0671   2.0556 0004199 246.1675 120.3027  1.00271475 37600
EUTELSAT 9B             
1 41310U 16005A   25328.79993833  .00000082  00000+0  00000+0 0  9990
2 41310   0.0461  64.8026 0004296 192.0916 104.1096  1.00271422 36062
EUTELSAT 65 WEST A      
1 41382U 16014A   25328.85653203 -.00000257  00000+0  00000+0 0  9995
2 41382   0.0594  24.6665 0002525 227.3480  55.2080  1.00269574 35481
EUTELSAT 117 WEST B     
1 41589U 16038B   25328.63223733  .00000008  00000+0  00000+0 0  9990
2 41589   0.0061 158.6523 0000410 104.9921 270.8030  1.00272143 34611
EUTELSAT 172B           
1 42741U 17029B   25328.83217854  .00000015  00000+0  00000+0 0  9999
2 42741   0.0330 158.3155 0000174 234.3138 143.0244  1.00275594 31689
EUTELSAT 7C             
1 44334U 19034B   25328.51402635  .00000068  00000+0  00000+0 0  9993
2 44334   0.0763 184.6942 0003193  32.2953  38.8284  1.00270295  4788
EUTELSAT 5 WEST B       
1 44624U 19067A   25328.86849208 -.00000022  00000+0  00000+0 0  9991
2 44624   0.0665 336.0399 0003148 266.1398 129.5740  1.00271411 22383
EUTELSAT KONNECT        
1 45027U 20005B   25328.72817791  .00000070  00000+0  00000+0 0  9992
2 45027   0.0664 101.9594 0001196 179.4086  51.9261  1.00273565 22273
